#aV2019  3 19  0  0  0.00000000     288 DD+AD WGS84 FIT  NGA
## 2045 172800.00000000   300.00000000 58561 0.0000000000000
+   31     1  2  3  5  6  7  8  9 10 11 12 13 14 15 16 17 18
+         19 20 21 22 23 24 25 26 27 28 29 30 31 32  0  0  0
+          0  0  0  0  0  0  0  0  0  0  0  0  0  0  0  0  0
+          0  0  0  0  0  0  0  0  0  0  0  0  0  0  0  0  0
+          0  0  0  0  0  0  0  0  0  0  0  0  0  0  0  0  0
++         2  2  2  2  2  2  2  2  2  2  2  2  2  2  2  2  2
++         2  2  2  2  2  2  2  2  2  2  2  2  2  2  0  0  0
++         0  0  0  0  0  0  0  0  0  0  0  0  0  0  0  0  0
++         0  0  0  0  0  0  0  0  0  0  0  0  0  0  0  0  0
++         0  0  0  0  0  0  0  0  0  0  0  0  0  0  0  0  0
%c cc cc ccc ccc cccc cccc cccc cccc ccccc ccccc ccccc ccccc
%c cc cc ccc ccc cccc cccc cccc cccc ccccc ccccc ccccc ccccc
%f  0.0000000  0.000000000  0.00000000000  0.000000000000000
%f  0.0000000  0.000000000  0.00000000000  0.000000000000000
%i    0    0    0    0      0      0      0      0         0
%i    0    0    0    0      0      0      0      0         0
/*      NGA, ST. LOUIS,MO.                                  
/*   EPHEMERIS COMPUTED FROM 2 DAYS OF DATA                 
/*   EPOCHA v3 SMOOTHER                                     
/*   G1762 IERS2010 SATAF SATAPC                            
*  2019  3 19  8 20  0.00000000
P  1 -12101.768013  21659.021463  -9194.827856   -183.761369                    
V  1  -9681.645539   6667.940039  29300.971041     -0.076165                    
P  2  20421.495719 -12104.076709 -11128.751318   -167.255383                    
V  2  -7480.003399  13467.862848 -27090.095439     -0.096122                    
P  3  -6216.453269  14040.404416 -21699.716982    186.781182                    
V  3 -26637.028678  -6734.553928   3354.340511      0.009602                    
P  5  23571.383680  -3603.821276  11791.840328      1.182088                    
V  5  14241.192000   5637.894712 -26277.166726     -0.000036                    
P  6  18131.695477    -55.608577 -19370.319653    251.703657                    
V  6 -16087.350494  18715.042144 -15043.362216     -0.088881                    
P  7    706.792388  18552.823125  19062.446793     12.074275                    
V  7 -17845.435208  15930.354874 -15499.861325     -0.073440                    
P  8  -8401.359195  16585.481423  18932.457027   -136.711163                    
V  8  -8450.807261 -22498.199826  16189.698280     -0.014463                    
P  9   7971.300007  25330.035310     77.811660    442.915312                    
V  9  -2895.057658   1063.781806 -31586.317301     -0.058840                    
P 10 -22658.446559 -11340.648646   8347.120868     93.850240                    
V 10  10730.661906     91.858279  29268.394664     -0.087184                    
P 11  -8794.170870  25171.234158    641.855904   -642.436329                    
V 11  -3595.747951  -2685.408092  30393.528955      0.066824                    
P 12   8231.569088 -12757.985711 -21983.473758    258.867987                    
V 12  26014.323325   8502.757351   5029.221179     -0.032715                    
P 13  13369.613521  -8459.693411  21212.470478    -71.162147                    
V 13   5133.203597  26706.235816   7412.938451      0.014321                    
P 14 -15674.174057  -8782.041420 -19311.390008    -87.796909                    
V 14  -4037.226323 -24837.555387  14165.087848      0.014212                    
P 15   6325.234016 -18815.781117  17201.817995   -322.814463                    
V 15  10744.267716  20045.908450  18101.601790      0.018792                    
P 16 -22859.389693   1916.593181  13578.375651    -26.433953                    
V 16 -16011.271848  -6789.802796 -25226.803181     -0.026674                    
P 17  13753.710338  17721.068324 -13884.270235     25.671987                    
V 17   2643.791856  18133.568317  24946.926528      0.057844                    
P 18 -17310.406191  20034.524720     88.225112     36.194958                    
V 18  -1978.688201  -2607.945108  31672.339698      0.034979                    
P 19  15324.905832   9045.195839 -19979.966288   -340.628463                    
V 19   3748.732780  24432.399636  14238.489076      0.043094                    
P 20 -15754.367598 -13973.378654  16162.223480    523.227111                    
V 20  20896.150167     31.266272  20120.071633      0.003525                    
P 21  -5516.831912 -16646.079824  20792.656251   -229.617647                    
V 21  16564.054650 -18246.468269 -10504.430155      0.074156                    
P 22 -14421.619012  11794.620007 -18669.521656   -667.143490                    
V 22 -23700.890433  -5883.695963  14468.070466     -0.074801                    
P 23   -120.358118  24155.519642 -10241.099805   -193.489933                    
V 23  -7314.775879 -11991.983155 -27755.280958      0.013966                    
P 24  13979.246608 -21859.421908  -4941.832708    -63.592312                    
V 24   6806.315878  -2283.792455  30619.608931     -0.004944                    
P 25  -5415.858640 -15954.413598 -20801.504586   -734.980203                    
V 25  25275.268828   5452.582358 -10617.562461     -0.048822                    
P 26 -26244.665030  -3113.074014   3454.927382    153.130296                    
V 26  -3685.111160  -3758.241656 -31049.057678      0.100929                    
P 27 -13799.289777   5366.459405  21945.848409    -89.308172                    
V 27  -8294.998810 -26799.239866   1620.424377     -0.080574                    
P 28  20579.802145  13893.658401   9901.262372    766.523982                    
V 28 -11667.929903  -2003.227327  28934.938712      0.005405                    
P 29  -2671.522825 -25988.282696  -4820.751832    245.934047                    
V 29   3279.464095   5479.261610 -31518.456505     -0.088494                    
P 30  11184.349028  10950.461177  21473.862468    -71.061811                    
V 30 -19663.418657  18947.139944    400.658093     -0.066488                    
P 31 -19242.036244    921.615256 -18469.387273     51.132225                    
V 31  15617.116827 -17340.491887 -16696.713628     -0.026697                    
P 32 -15970.145162 -14198.712866 -15799.071494   -173.967689                    
V 32  -4003.758568 -19804.624905  21670.959406      0.184417                    
EOF
